{"type":"Feature","properties":{"MUN":"SOMERS POINT CITY","COUNTY":"ATLANTIC","MUN_LABEL":"Somers Point City","MUN_TYPE":"City","NAME":"Somers Point","GNIS_NAME":"City of Somers Point"},"geometry":{"type":"Polygon","coordinates":[[[-74.5960476,39.3360507],[-74.5956535,39.3356153],[-74.5951629,39.3350645],[-74.5949259,39.3348007],[-74.5947456,39.3345938],[-74.5946889,39.3345162],[-74.594526,39.3343315],[-74.5944756,39.3342743],[-74.5944153,39.3342059],[-74.5937111,39.3334663],[-74.5931037,39.3327914],[-74.5928534,39.3324992],[-74.5926165,39.3322509],[-74.5924697,39.3321216],[-74.5923563,39.3320518],[-74.5921396,39.3319278],[-74.5919155,39.3318149],[-74.5918061,39.3317599],[-74.5913693,39.3315454],[-74.5900522,39.3308788],[-74.5895104,39.3306062],[-74.5892568,39.3304786],[-74.5891019,39.3304007],[-74.58877,39.3302336],[-74.5878549,39.3297728],[-74.5877114,39.3297007],[-74.5870405,39.3293634],[-74.5866779,39.3291811],[-74.5853739,39.3285286],[-74.5847109,39.328196],[-74.5846099,39.3281395],[-74.5847308,39.327995],[-74.5850641,39.3275806],[-74.5850826,39.3275577],[-74.5847191,39.3274146],[-74.5811121,39.3259943],[-74.5808632,39.3262361],[-74.5800991,39.3259418],[-74.5719475,39.3228011],[-74.5719609,39.3227832],[-74.5720047,39.3227332],[-74.5720404,39.322679],[-74.5720779,39.3226192],[-74.5721028,39.3225636],[-74.5721135,39.3225164],[-74.5721099,39.3224789],[-74.5721027,39.3224414],[-74.5720794,39.3224025],[-74.5720526,39.3223734],[-74.5720186,39.3223484],[-74.5720014,39.3223414],[-74.5719522,39.3222589],[-74.5719451,39.3222172],[-74.571945,39.3221728],[-74.57197,39.3221255],[-74.5720307,39.3220838],[-74.5721237,39.3220532],[-74.5722489,39.3220503],[-74.5724206,39.3220697],[-74.5725637,39.3221001],[-74.5726638,39.3221251],[-74.572764,39.3221417],[-74.5728606,39.3221472],[-74.5729464,39.322136],[-74.5730179,39.3221165],[-74.5730787,39.3220859],[-74.5732878,39.321908],[-74.5733483,39.3218423],[-74.5734592,39.3217218],[-74.5736843,39.3215049],[-74.5738361,39.3213493],[-74.5739362,39.3212159],[-74.573979,39.3211158],[-74.5740432,39.3209936],[-74.5741575,39.3208546],[-74.5769903,39.317747],[-74.5772547,39.3175468],[-74.5775549,39.3173632],[-74.577823,39.3172297],[-74.5780089,39.3171518],[-74.578019,39.3171493],[-74.5782876,39.3170838],[-74.5786126,39.3170422],[-74.5790973,39.3170511],[-74.5794637,39.3170646],[-74.5813151,39.3174182],[-74.5816689,39.3174604],[-74.5818668,39.3174632],[-74.5821237,39.3174667],[-74.5830457,39.3174477],[-74.5833195,39.3174225],[-74.5840503,39.3173552],[-74.5842634,39.3173194],[-74.5846264,39.3172584],[-74.5849347,39.3171631],[-74.5849986,39.3171433],[-74.5852821,39.3169871],[-74.58542,39.3168458],[-74.5854387,39.3168211],[-74.5858162,39.316321],[-74.586858,39.3150277],[-74.5871409,39.3146765],[-74.5874093,39.3143037],[-74.5874418,39.3142585],[-74.5875123,39.3140775],[-74.5875578,39.3139245],[-74.5875772,39.3137902],[-74.587577,39.3136524],[-74.5875591,39.3135009],[-74.5875057,39.3133541],[-74.5872748,39.3129916],[-74.5872293,39.3129434],[-74.5871849,39.3128946],[-74.5871417,39.3128454],[-74.5870996,39.3127957],[-74.5870586,39.3127454],[-74.5870187,39.3126947],[-74.58698,39.3126434],[-74.5869424,39.3125917],[-74.5869118,39.3125478],[-74.58688,39.3125004],[-74.5868464,39.3124484],[-74.5868085,39.3123882],[-74.586766,39.312319],[-74.5867262,39.3122521],[-74.5866889,39.3121871],[-74.5866539,39.3121237],[-74.586621,39.3120616],[-74.5865902,39.3120006],[-74.5865614,39.3119408],[-74.5865345,39.3118819],[-74.5865101,39.3118255],[-74.5864868,39.3117692],[-74.5864648,39.3117132],[-74.5864439,39.3116573],[-74.5864243,39.3116018],[-74.5864059,39.3115465],[-74.5863887,39.3114915],[-74.5863727,39.3114368],[-74.5863586,39.3113851],[-74.5863456,39.3113345],[-74.5863337,39.3112849],[-74.5863229,39.3112361],[-74.5863131,39.3111881],[-74.5863044,39.311141],[-74.5862967,39.3110946],[-74.5862901,39.3110489],[-74.5862842,39.3110022],[-74.5862792,39.3109556],[-74.5862751,39.3109091],[-74.5862718,39.3108627],[-74.5862693,39.3108165],[-74.5862678,39.3107704],[-74.5862671,39.3107246],[-74.5862672,39.310679],[-74.5862683,39.3106319],[-74.5862704,39.3105844],[-74.5862734,39.3105365],[-74.5862774,39.3104882],[-74.5862823,39.3104395],[-74.5862882,39.3103906],[-74.586295,39.3103413],[-74.5863028,39.3102918],[-74.5863114,39.3102429],[-74.5863209,39.3101941],[-74.5863313,39.3101454],[-74.5863427,39.3100968],[-74.5863549,39.3100483],[-74.5863681,39.3099998],[-74.5863822,39.3099515],[-74.5863972,39.3099032],[-74.5864487,39.3099134],[-74.5865014,39.3099232],[-74.5865553,39.3099327],[-74.5866106,39.3099419],[-74.5866672,39.3099509],[-74.5867254,39.3099596],[-74.5867855,39.3099682],[-74.5868476,39.3099765],[-74.5869728,39.3099922],[-74.5871111,39.310008],[-74.5872627,39.3100241],[-74.5874918,39.3100472],[-74.5877876,39.3100783],[-74.5878646,39.3100857],[-74.5879336,39.3100917],[-74.5880074,39.3100971],[-74.5880767,39.310101],[-74.5881425,39.3101035],[-74.5882056,39.3101046],[-74.5882631,39.3101045],[-74.5883218,39.3101037],[-74.5883816,39.3101021],[-74.5884428,39.3100998],[-74.5885053,39.3100966],[-74.5885693,39.3100927],[-74.5886348,39.3100879],[-74.5887022,39.3100824],[-74.5887606,39.3100768],[-74.5888214,39.31007],[-74.5888852,39.3100621],[-74.588953,39.3100527],[-74.5890184,39.310043],[-74.5890913,39.3100315],[-74.5893411,39.3099904],[-74.5894861,39.3099666],[-74.5896117,39.3099452],[-74.5897271,39.3099248],[-74.5898348,39.309905],[-74.5899381,39.309885],[-74.5900366,39.3098649],[-74.5901311,39.3098446],[-74.5902222,39.309824],[-74.5903113,39.3098028],[-74.5904025,39.3097801],[-74.5904958,39.3097558],[-74.5905916,39.3097299],[-74.5906903,39.3097024],[-74.5907926,39.309673],[-74.5908994,39.3096414],[-74.5910123,39.3096071],[-74.5911303,39.3095706],[-74.591237,39.3095369],[-74.5913364,39.3095046],[-74.5914301,39.3094734],[-74.5915197,39.3094425],[-74.5916055,39.309412],[-74.5916878,39.3093816],[-74.5917671,39.3093513],[-74.5918256,39.3093282],[-74.5918848,39.309304],[-74.5919448,39.3092787],[-74.5920058,39.3092523],[-74.5920678,39.3092247],[-74.5921311,39.3091958],[-74.592196,39.3091655],[-74.5922627,39.3091336],[-74.5923269,39.3091023],[-74.5923936,39.3090693],[-74.5925375,39.3089965],[-74.5926882,39.3089185],[-74.5929605,39.3087758],[-74.5930497,39.3087287],[-74.5931415,39.3086796],[-74.5932362,39.3086281],[-74.5933348,39.3085738],[-74.5934368,39.308517],[-74.5935454,39.3084558],[-74.5937977,39.3083119],[-74.5939222,39.30824],[-74.5940492,39.3081658],[-74.594179,39.308089],[-74.5943122,39.3080093],[-74.594449,39.3079267],[-74.5945907,39.3078402],[-74.5947383,39.3077494],[-74.5948939,39.3076528],[-74.594995,39.3075892],[-74.595107,39.3075176],[-74.5954605,39.3072877],[-74.595582,39.3072092],[-74.595694,39.307138],[-74.5957966,39.3070741],[-74.5959168,39.307001],[-74.5960506,39.3069215],[-74.5961938,39.3068378],[-74.5964818,39.3066713],[-74.596603,39.3066008],[-74.5967296,39.3065262],[-74.5968424,39.3064585],[-74.5969535,39.3063906],[-74.5970684,39.3063192],[-74.5971882,39.3062438],[-74.5973146,39.3061632],[-74.5974403,39.3060822],[-74.5975788,39.3059921],[-74.5981124,39.3056423],[-74.5983399,39.3054942],[-74.5984642,39.3054142],[-74.5985808,39.30534],[-74.5986919,39.3052701],[-74.5987988,39.3052037],[-74.5989404,39.3051171],[-74.5990992,39.3050214],[-74.5992502,39.3049312],[-74.5995991,39.3047238],[-74.5997643,39.304625],[-74.5999079,39.3045381],[-74.6000381,39.3044581],[-74.6001133,39.3044125],[-74.6001985,39.3043624],[-74.6002805,39.3043152],[-74.6004748,39.3042047],[-74.6005701,39.3041496],[-74.6006571,39.3040977],[-74.6007345,39.3040497],[-74.6007834,39.3040183],[-74.6008296,39.3039875],[-74.6008734,39.3039573],[-74.600915,39.3039274],[-74.6009546,39.3038977],[-74.6009924,39.3038682],[-74.6010284,39.3038387],[-74.6010626,39.3038092],[-74.6018403,39.3033472],[-74.602617,39.3028843],[-74.6033928,39.3024204],[-74.6041676,39.3019555],[-74.6049414,39.3014897],[-74.6057143,39.3010229],[-74.6064862,39.3005552],[-74.6072572,39.3000865],[-74.6121845,39.2970539],[-74.6124799,39.2969411],[-74.6126567,39.2968749],[-74.612742,39.2968437],[-74.6128224,39.296815],[-74.6128994,39.2967881],[-74.6129735,39.296763],[-74.6130498,39.2967379],[-74.6131239,39.2967143],[-74.6131962,39.2966922],[-74.613267,39.2966714],[-74.6133364,39.2966519],[-74.6134047,39.2966337],[-74.6134719,39.2966167],[-74.6135382,39.2966009],[-74.6136441,39.2965771],[-74.6137475,39.2965551],[-74.6138488,39.296535],[-74.6139479,39.2965167],[-74.6140452,39.2965001],[-74.6141406,39.2964853],[-74.6142343,39.2964722],[-74.6143263,39.2964609],[-74.6143778,39.2964552],[-74.6144302,39.2964501],[-74.6144836,39.2964453],[-74.6145381,39.2964411],[-74.6145937,39.2964372],[-74.6146506,39.2964339],[-74.6147088,39.2964309],[-74.6147686,39.2964283],[-74.6148292,39.2964262],[-74.6148916,39.2964245],[-74.6150234,39.2964222],[-74.6151668,39.2964214],[-74.6153325,39.296422],[-74.6154484,39.2964236],[-74.6155679,39.2964269],[-74.6156915,39.2964318],[-74.6158202,39.2964384],[-74.6159537,39.2964466],[-74.6160951,39.2964566],[-74.6162466,39.2964686],[-74.6164146,39.2964831],[-74.616566,39.2964969],[-74.6167023,39.2965103],[-74.6168292,39.2965237],[-74.6169488,39.2965373],[-74.6170637,39.2965515],[-74.6171737,39.2965663],[-74.6172796,39.2965818],[-74.6173818,39.2965979],[-74.6174369,39.2966072],[-74.6174924,39.2966171],[-74.6175483,39.2966275],[-74.6176046,39.2966385],[-74.6176613,39.2966501],[-74.6177186,39.2966622],[-74.6177763,39.2966749],[-74.6178347,39.2966882],[-74.6178935,39.296702],[-74.617953,39.2967165],[-74.6180741,39.2967473],[-74.6181984,39.2967807],[-74.6183267,39.2968168],[-74.6184476,39.2968523],[-74.6185735,39.2968907],[-74.6187056,39.2969322],[-74.6188464,39.2969776],[-74.6189724,39.2970191],[-74.6191124,39.297066],[-74.6195617,39.2972185],[-74.6197197,39.2972718],[-74.6199675,39.2973554],[-74.6201838,39.2974298],[-74.6203826,39.2974998],[-74.6204768,39.2975337],[-74.6205681,39.297567],[-74.6206579,39.2976002],[-74.6207455,39.2976331],[-74.6208308,39.2976658],[-74.6209142,39.2976982],[-74.6209958,39.2977305],[-74.6210757,39.2977626],[-74.621154,39.2977947],[-74.6212308,39.2978268],[-74.6213138,39.2978621],[-74.6213986,39.2978989],[-74.6214855,39.2979372],[-74.6215749,39.2979771],[-74.6216668,39.2980188],[-74.6217623,39.2980628],[-74.6218622,39.2981093],[-74.6219682,39.2981591],[-74.6223329,39.2983319],[-74.6225954,39.2984578],[-74.6227171,39.2985169],[-74.6228321,39.2985733],[-74.6229418,39.2986278],[-74.623047,39.2986806],[-74.6231524,39.2987343],[-74.6232541,39.2987869],[-74.6233527,39.2988386],[-74.6234483,39.2988896],[-74.6235414,39.29894],[-74.6236319,39.2989899],[-74.6237201,39.2990394],[-74.6238062,39.2990886],[-74.6238934,39.2991395],[-74.6239785,39.2991901],[-74.6240615,39.2992406],[-74.6241427,39.299291],[-74.6242219,39.2993414],[-74.6242994,39.2993917],[-74.624375,39.299442],[-74.624449,39.2994924],[-74.6245214,39.2995429],[-74.6245921,39.2995934],[-74.6246613,39.2996442],[-74.6247288,39.299695],[-74.6247949,39.2997461],[-74.6248594,39.2997973],[-74.6249225,39.2998487],[-74.624984,39.2999004],[-74.6250439,39.2999517],[-74.6251019,39.3000021],[-74.6251582,39.3000517],[-74.6252128,39.3001006],[-74.6252659,39.3001489],[-74.6253176,39.3001967],[-74.6253678,39.3002439],[-74.6254167,39.3002908],[-74.6254644,39.3003373],[-74.6255107,39.3003835],[-74.6255558,39.3004293],[-74.6255998,39.3004748],[-74.6256425,39.3005201],[-74.625684,39.300565],[-74.6257244,39.3006098],[-74.6257636,39.3006543],[-74.6258309,39.300733],[-74.6258971,39.3008133],[-74.6259621,39.3008952],[-74.6260259,39.3009784],[-74.6260884,39.3010631],[-74.6261495,39.3011491],[-74.6262093,39.3012362],[-74.6262676,39.3013245],[-74.6262992,39.3013741],[-74.6263306,39.3014249],[-74.6263617,39.3014771],[-74.6263927,39.3015306],[-74.6264235,39.3015857],[-74.6264544,39.3016424],[-74.6264853,39.301701],[-74.6265165,39.3017617],[-74.6265466,39.3018221],[-74.6265774,39.3018851],[-74.6266089,39.3019512],[-74.6266416,39.3020213],[-74.6267102,39.3021721],[-74.6268059,39.3023877],[-74.626841,39.3024678],[-74.6268752,39.3025475],[-74.6269086,39.3026268],[-74.6269412,39.3027057],[-74.6269729,39.3027842],[-74.6270037,39.3028624],[-74.6270337,39.3029402],[-74.6270629,39.3030177],[-74.6270913,39.3030948],[-74.6271188,39.3031716],[-74.6271455,39.3032481],[-74.6271714,39.3033242],[-74.6271965,39.3033999],[-74.6272207,39.3034754],[-74.6272441,39.3035505],[-74.6272667,39.3036252],[-74.627294,39.3037189],[-74.6273203,39.3038127],[-74.6273457,39.3039067],[-74.62737,39.3040009],[-74.6273934,39.3040953],[-74.6274158,39.3041899],[-74.6274372,39.3042846],[-74.6274577,39.3043796],[-74.627053,39.3079674],[-74.6270195,39.3082641],[-74.627132,39.3101286],[-74.6271356,39.3101881],[-74.6273631,39.3114998],[-74.6278328,39.3125087],[-74.6282475,39.313069],[-74.628284,39.3131184],[-74.6284875,39.3137167],[-74.6286789,39.3145391],[-74.6286967,39.3146643],[-74.62884,39.3152879],[-74.6288991,39.3155932],[-74.6288967,39.3156484],[-74.6288911,39.3157752],[-74.628883,39.3159246],[-74.6288165,39.3161326],[-74.6286914,39.3163667],[-74.6285413,39.3166137],[-74.6283327,39.3168674],[-74.6280821,39.3170821],[-74.6278595,39.3172435],[-74.6278399,39.3172578],[-74.6275222,39.3173946],[-74.6272983,39.317452],[-74.6270706,39.3175104],[-74.626937,39.3175447],[-74.6259418,39.3176952],[-74.6252895,39.3177738],[-74.6250016,39.3178139],[-74.6248999,39.317834],[-74.6247604,39.3178744],[-74.6245312,39.3179757],[-74.624265,39.3181349],[-74.62407,39.3183133],[-74.6239185,39.3185109],[-74.6238932,39.3185914],[-74.6238352,39.3187758],[-74.6238352,39.3187809],[-74.6238357,39.3190599],[-74.6238298,39.319185],[-74.6238547,39.3192862],[-74.6238859,39.3193824],[-74.6239854,39.3195557],[-74.6240724,39.3196471],[-74.6245844,39.3199526],[-74.6250016,39.3202016],[-74.6250178,39.3202107],[-74.6250799,39.3202486],[-74.6252942,39.3203793],[-74.6254282,39.3204896],[-74.6254825,39.3205477],[-74.6256042,39.3206779],[-74.6257217,39.3208727],[-74.6257521,39.3209641],[-74.6258297,39.3211971],[-74.6258731,39.3213273],[-74.6258825,39.3213741],[-74.6259213,39.3215657],[-74.6259321,39.3216197],[-74.6259411,39.3216996],[-74.6259662,39.321925],[-74.6259646,39.3219812],[-74.6259585,39.3222088],[-74.6259583,39.3222174],[-74.6259077,39.3224154],[-74.6258919,39.3224774],[-74.6257418,39.3227894],[-74.6254998,39.3230951],[-74.6252193,39.323434],[-74.6250908,39.3235893],[-74.6250016,39.3237129],[-74.6249287,39.3238389],[-74.624848,39.3239783],[-74.6247129,39.3242864],[-74.6246947,39.3243281],[-74.6246635,39.324399],[-74.6246328,39.3246385],[-74.6246149,39.324778],[-74.6246016,39.3249193],[-74.6245623,39.3251881],[-74.6245498,39.3252861],[-74.6245412,39.3253526],[-74.6245449,39.3256342],[-74.6245556,39.3264408],[-74.6245547,39.3264443],[-74.6245421,39.3264951],[-74.6244505,39.3268646],[-74.6244087,39.3270331],[-74.6243955,39.3270862],[-74.6243513,39.3271519],[-74.6241234,39.327491],[-74.6237891,39.3277802],[-74.623526,39.3279011],[-74.6232533,39.3280264],[-74.6230973,39.3280778],[-74.6229337,39.3281318],[-74.622807,39.3281736],[-74.6224477,39.3282921],[-74.6223239,39.3283585],[-74.6219708,39.3285478],[-74.6218075,39.3286855],[-74.6217479,39.3287358],[-74.6216367,39.3289381],[-74.6216307,39.329097],[-74.6218066,39.3296308],[-74.6218397,39.3297314],[-74.6218987,39.3299105],[-74.6219098,39.3299437],[-74.6219553,39.3300798],[-74.6219985,39.330209],[-74.6220029,39.3302988],[-74.6220113,39.330469],[-74.6220107,39.3304754],[-74.621987,39.330729],[-74.6219813,39.3307444],[-74.6219253,39.3308974],[-74.6219129,39.3309313],[-74.6217831,39.3311522],[-74.6217769,39.3311626],[-74.6216161,39.3313843],[-74.6213128,39.3316783],[-74.6212541,39.3317119],[-74.6209759,39.3318711],[-74.6207987,39.3319726],[-74.6206165,39.3320685],[-74.6203045,39.3322326],[-74.6198819,39.332455],[-74.61986,39.3324639],[-74.6193311,39.3326778],[-74.6191538,39.3327495],[-74.6189629,39.3328043],[-74.618806,39.3328494],[-74.618531,39.3329283],[-74.6177207,39.3331688],[-74.6176355,39.3331941],[-74.6174805,39.3332279],[-74.6173193,39.3332521],[-74.6169893,39.3332441],[-74.6165013,39.3332323],[-74.6163676,39.333229],[-74.616287,39.3332249],[-74.6158586,39.3332029],[-74.6155397,39.3331865],[-74.6153661,39.3331867],[-74.6153035,39.3331925],[-74.6152607,39.3331964],[-74.6151368,39.3332351],[-74.6149695,39.3333171],[-74.6147251,39.3334636],[-74.6144744,39.3336137],[-74.6143168,39.3337082],[-74.6139537,39.3339258],[-74.6137205,39.3340655],[-74.6137197,39.334066],[-74.6135221,39.3341843],[-74.6134643,39.334219],[-74.6133064,39.3343347],[-74.6132611,39.3343854],[-74.6130742,39.334595],[-74.6129596,39.3347631],[-74.6128805,39.3348791],[-74.6127588,39.3350575],[-74.6126101,39.3351684],[-74.6125935,39.3351763],[-74.6124367,39.3352504],[-74.6122198,39.3353277],[-74.612145,39.3353356],[-74.6120369,39.3353471],[-74.6118447,39.3353714],[-74.6116277,39.3353764],[-74.6112308,39.3353527],[-74.6110856,39.3353258],[-74.6110075,39.3353096],[-74.6099623,39.3350361],[-74.6097515,39.3350267],[-74.6097078,39.3350337],[-74.6095097,39.3350655],[-74.609149,39.3351553],[-74.6087457,39.3352558],[-74.6084067,39.3353402],[-74.6080927,39.3354042],[-74.6078958,39.3354208],[-74.6074934,39.3354091],[-74.6074547,39.3354044],[-74.6068867,39.3353212],[-74.6054949,39.3351173],[-74.6052619,39.3351014],[-74.6050748,39.3350886],[-74.604965,39.3350811],[-74.6046375,39.3351011],[-74.6032848,39.3351837],[-74.6029872,39.3352032],[-74.6027549,39.3352333],[-74.6027211,39.3352418],[-74.6026115,39.3352693],[-74.6024784,39.3353171],[-74.6023607,39.3353965],[-74.6023249,39.3354207],[-74.6022051,39.335538],[-74.6019925,39.3357464],[-74.6018082,39.3360215],[-74.6016554,39.3362496],[-74.6014447,39.3365639],[-74.6013195,39.3367508],[-74.6011015,39.3370762],[-74.6010167,39.3371792],[-74.6009282,39.3372497],[-74.6009092,39.3372626],[-74.6007844,39.3373479],[-74.6007193,39.3373841],[-74.6006556,39.337404],[-74.6005241,39.337442],[-74.6004559,39.3374541],[-74.6003567,39.3374614],[-74.6002836,39.3374621],[-74.6000854,39.33744],[-74.5999983,39.3374238],[-74.5999179,39.3373896],[-74.5997271,39.3372814],[-74.5996386,39.3372093],[-74.5995501,39.3371227],[-74.5995035,39.3370625],[-74.5993155,39.3367136],[-74.5992959,39.3366643],[-74.5992906,39.336651],[-74.5992688,39.3365595],[-74.5992281,39.3363284],[-74.5992295,39.336195],[-74.5992339,39.3357816],[-74.5992363,39.3355532],[-74.5992204,39.3354126],[-74.5991594,39.3348743],[-74.5991528,39.3348527],[-74.5991298,39.334778],[-74.5990755,39.3346962],[-74.5990242,39.3346337],[-74.5988691,39.3345375],[-74.5987372,39.3344991],[-74.5986272,39.3344944],[-74.5985078,39.3344993],[-74.5984613,39.3345138],[-74.598373,39.3345427],[-74.5982925,39.3345717],[-74.5981809,39.3346296],[-74.597833,39.3348602],[-74.5976792,39.3349622],[-74.5973077,39.3353622],[-74.597128,39.3354659],[-74.5970289,39.3355213],[-74.596834,39.3356071],[-74.5962946,39.3358446],[-74.5961056,39.3359916],[-74.5960476,39.3360507]]]}}
